IRIDIUM 7               
1 24793U 97020B   24325.17152873  .00000907  00000+0  30816-3 0  9999
2 24793  86.3945 264.4529 0002635  85.1078 275.0419 14.35608053442125
IRIDIUM 5               
1 24795U 97020D   24324.70281597  .00006033  00000+0  53341-3 0  9999
2 24795  86.3936 180.0318 0115566 167.5305 192.8828 14.91045323454212
IRIDIUM 4               
1 24796U 97020E   24324.86912469  .00000800  00000+0  26596-3 0  9994
2 24796  86.3944 261.5920 0002392  87.8108 272.3363 14.36521789442447
IRIDIUM 914             
1 24836U 97030A   24324.82673385  .00001003  00000+0  30942-3 0  9993
2 24836  86.3912 270.8468 0002546 125.7742 234.3695 14.40463456576988
IRIDIUM 16              
1 24841U 97030F   24325.37880124  .00000899  00000+0  28887-3 0  9998
2 24841  86.3995 293.0142 0004026  60.5373 299.6226 14.38331384437242
IRIDIUM 911             
1 24842U 97030G   24324.85114218  .00001373  00000+0  37066-3 0  9992
2 24842  86.4418 292.2186 0016669  77.5824 282.7243 14.47109836444782
IRIDIUM 17              
1 24870U 97034B   24324.47109480  .00000914  00000+0  29919-3 0  9998
2 24870  86.3933 322.9732 0002354  49.0106 311.1295 14.37433038433454
IRIDIUM 920             
1 24871U 97034C   24325.26100372  .00000929  00000+0  28198-3 0  9992
2 24871  86.3935 302.3398 0013507  57.4830 302.7672 14.41135157436742
